GEOSCAN 3 (RS92S3)      
1 64893U 25155T   26155.22185720  .00020422  00000+0  60389-3 0  9992
2 64893  97.4537 124.9528 0004712 205.8199 154.2809 15.34941737 78868
INNOSAT 3 (RS92S0)      
1 64894U 25155U   26155.28076526  .00041935  00000+0  95311-3 0  9997
2 64894  97.4489 126.4775 0004032 186.5517 173.5678 15.42884144 78977
KNACKSAT-2              
1 67683U 98067XZ  26153.80264404  .00045408  00000+0  58253-3 0  9991
2 67683  51.6300   6.7601 0010958 153.2067 206.9494 15.58609395 18031
