OBJECT_NAME,OBJECT_ID,EPOCH,MEAN_MOTION,ECCENTRICITY,INCLINATION,RA_OF_ASC_NODE,ARG_OF_PERICENTER,MEAN_ANOMALY,EPHEMERIS_TYPE,CLASSIFICATION_TYPE,NORAD_CAT_ID,ELEMENT_SET_NO,REV_AT_EPOCH,BSTAR,MEAN_MOTION_DOT,MEAN_MOTION_DDOT
GEOSCAN 3 (RS92S3),2025-155T,2026-06-04T05:19:28.462080,15.34941737,.00047128,97.4537,124.9528,205.8199,154.2809,0,U,64893,999,7886,.60388662E-3,.20422E-3,0
INNOSAT 3 (RS92S0),2025-155U,2026-06-04T06:44:18.118464,15.42884144,.00040326,97.4489,126.4775,186.5517,173.5678,0,U,64894,999,7897,.95310521E-3,.41935E-3,0
KNACKSAT-2,1998-067XZ,2026-06-02T19:15:48.445056,15.58609395,.0010958,51.6300,6.7601,153.2067,206.9494,0,U,67683,999,1803,.58253104E-3,.45408E-3,0
